{
"type": "FeatureCollection",
"name": "project_list",
"features": [
{ "type": "Feature", "properties": { "PROJECT NA": "Long Lawen, Belaga, Sarawak", "Check": null, "Latitude": 2.67007, "Longitude": 114.2, "PROJECT TY": "Hydro", "CAPACITY (": "15", "SCOPE OF W": null, "HOUSEHOLD": "40", "START": 2001, "COMPLETED": null, "WORK PROGR": "100%", "Maintenanc": null }, "geometry": { "type": "Point", "coordinates": [ 114.2, 2.67007 ] } },
{ "type": "Feature", "properties": { "PROJECT NA": "Kg. Terian, Penampang, Sabah", "Check": null, "Latitude": 5.81, "Longitude": 116.18, "PROJECT TY": "Hydro", "CAPACITY (": "5", "SCOPE OF W": null, "HOUSEHOLD": "25", "START": 2004, "COMPLETED": null, "WORK PROGR": "100%", "Maintenanc": null }, "geometry": { "type": "Point", "coordinates": [ 116.18, 5.81 ] } },
{ "type": "Feature", "properties": { "PROJECT NA": "Kg. Togudon Penampang Community Hostel", "Check": null, "Latitude": 5.854643412, "Longitude": 116.2937963, "PROJECT TY": "Solar", "CAPACITY (": "125wp", "SCOPE OF W": "Solar Home Power System", "HOUSEHOLD": null, "START": null, "COMPLETED": 2005, "WORK PROGR": "100%", "Maintenanc": null }, "geometry": { "type": "Point", "coordinates": [ 116.2937963, 5.854643412 ] } },
{ "type": "Feature", "properties": { "PROJECT NA": "Sapulut Forest Development, Sapulut", "Check": null, "Latitude": 4.607941718, "Longitude": 116.8352716, "PROJECT TY": "Solar", "CAPACITY (": "850wp", "SCOPE OF W": "Solar Home Power System for VSAT Satellite Com. & MAXIS Nano GSM", "HOUSEHOLD": null, "START": null, "COMPLETED": 2005, "WORK PROGR": "100%", "Maintenanc": null }, "geometry": { "type": "Point", "coordinates": [ 116.8352716, 4.607941718 ] } },
{ "type": "Feature", "properties": { "PROJECT NA": "Pulau Larapan, Sempurna, Sabah", "Check": null, "Latitude": 4.554213476, "Longitude": 118.5933562, "PROJECT TY": "Solar", "CAPACITY (": "850wp", "SCOPE OF W": "Solar Home Power System for VSAT Satellite Communication", "HOUSEHOLD": null, "START": null, "COMPLETED": 2005, "WORK PROGR": "100%", "Maintenanc": null }, "geometry": { "type": "Point", "coordinates": [ 118.5933562, 4.554213476 ] } },
{ "type": "Feature", "properties": { "PROJECT NA": "Kg. Bantul, Nabawan, Sabah", "Check": null, "Latitude": 4.34, "Longitude": 116.43, "PROJECT TY": "Hydro", "CAPACITY (": "5", "SCOPE OF W": null, "HOUSEHOLD": "22", "START": 2005, "COMPLETED": null, "WORK PROGR": "100%", "Maintenanc": null }, "geometry": { "type": "Point", "coordinates": [ 116.43, 4.34 ] } },
{ "type": "Feature", "properties": { "PROJECT NA": "Kg. Lumpagas, Nabawan, Sabah", "Check": null, "Latitude": 4.398002, "Longitude": 116.43, "PROJECT TY": "Hydro", "CAPACITY (": "3", "SCOPE OF W": null, "HOUSEHOLD": "15", "START": 2008, "COMPLETED": null, "WORK PROGR": "Not operating, deforestation of watershed", "Maintenanc": null }, "geometry": { "type": "Point", "coordinates": [ 116.43, 4.398002 ] } },
{ "type": "Feature", "properties": { "PROJECT NA": "Ba'kealan, Lawas, Sarawak", "Check": null, "Latitude": 4.00533, "Longitude": 115.62, "PROJECT TY": "Hydro", "CAPACITY (": "3", "SCOPE OF W": null, "HOUSEHOLD": "Private owner", "START": 2009, "COMPLETED": null, "WORK PROGR": "100%", "Maintenanc": null }, "geometry": { "type": "Point", "coordinates": [ 115.62, 4.00533 ] } },
{ "type": "Feature", "properties": { "PROJECT NA": "Bario Asal, Arul Layun, Miri, Sarawak", "Check": null, "Latitude": 3.752, "Longitude": 115.45, "PROJECT TY": "Hydro", "CAPACITY (": "45", "SCOPE OF W": null, "HOUSEHOLD": "55", "START": 2009, "COMPLETED": null, "WORK PROGR": "100%", "Maintenanc": null }, "geometry": { "type": "Point", "coordinates": [ 115.45, 3.752 ] } },
{ "type": "Feature", "properties": { "PROJECT NA": "Kg. Saliman, Nabawan, Sabah", "Check": null, "Latitude": 4.41525, "Longitude": 116.43, "PROJECT TY": "Hydro", "CAPACITY (": "3", "SCOPE OF W": null, "HOUSEHOLD": "18", "START": 2009, "COMPLETED": null, "WORK PROGR": "Not operating, deforestation of watershed", "Maintenanc": null }, "geometry": { "type": "Point", "coordinates": [ 116.43, 4.41525 ] } },
{ "type": "Feature", "properties": { "PROJECT NA": "Kg. Inakaak, Nabawan, Sabah", "Check": null, "Latitude": 4.427486, "Longitude": 116.43, "PROJECT TY": "Hydro", "CAPACITY (": "3", "SCOPE OF W": null, "HOUSEHOLD": "18", "START": 2010, "COMPLETED": null, "WORK PROGR": "100%", "Maintenanc": null }, "geometry": { "type": "Point", "coordinates": [ 116.43, 4.427486 ] } },
{ "type": "Feature", "properties": { "PROJECT NA": "Mudung Abun, Belaga, Sarawak", "Check": null, "Latitude": 2.8745569, "Longitude": 114.07, "PROJECT TY": "Hydro", "CAPACITY (": "25", "SCOPE OF W": null, "HOUSEHOLD": "30", "START": 2010, "COMPLETED": null, "WORK PROGR": "Not operating, decommisioned in 2018", "Maintenanc": null }, "geometry": { "type": "Point", "coordinates": [ 114.07, 2.8745569 ] } },
{ "type": "Feature", "properties": { "PROJECT NA": "Kolibambang Nursery, Kota Marudu, Sabah", "Check": null, "Latitude": 6.490406588, "Longitude": 117.0411786, "PROJECT TY": "Hydro", "CAPACITY (": "6", "SCOPE OF W": "Micro Hydro Power System", "HOUSEHOLD": null, "START": null, "COMPLETED": 2012, "WORK PROGR": "100%", "Maintenanc": null }, "geometry": { "type": "Point", "coordinates": [ 117.0411786, 6.490406588 ] } },
{ "type": "Feature", "properties": { "PROJECT NA": "Laban Rata, Mt. Kinabalu, Kundasang, Sabah", "Check": null, "Latitude": 6.058622328, "Longitude": 116.5661107, "PROJECT TY": "Hybrid", "CAPACITY (": null, "SCOPE OF W": "Solar / Wind / Pico Hydro Hybrid Power System", "HOUSEHOLD": null, "START": 2011, "COMPLETED": 2012, "WORK PROGR": "100%", "Maintenanc": null }, "geometry": { "type": "Point", "coordinates": [ 116.5661107, 6.058622328 ] } },
{ "type": "Feature", "properties": { "PROJECT NA": "AFC Marudu, Kota Marudu, Sabah", "Check": null, "Latitude": 6.479237808, "Longitude": 116.7671585, "PROJECT TY": "Hydro", "CAPACITY (": "5", "SCOPE OF W": null, "HOUSEHOLD": null, "START": 2011, "COMPLETED": null, "WORK PROGR": "100%", "Maintenanc": null }, "geometry": { "type": "Point", "coordinates": [ 116.7671585, 6.479237808 ] } },
{ "type": "Feature", "properties": { "PROJECT NA": "Kg. Babalitan, Nabawan, Sabah", "Check": null, "Latitude": 4.4495314, "Longitude": 116.43, "PROJECT TY": "Hybrid", "CAPACITY (": "5", "SCOPE OF W": null, "HOUSEHOLD": "27", "START": 2011, "COMPLETED": null, "WORK PROGR": "Not operating, deforestation of watershed", "Maintenanc": null }, "geometry": { "type": "Point", "coordinates": [ 116.43, 4.4495314 ] } },
{ "type": "Feature", "properties": { "PROJECT NA": "Long Lamai, Baram, Sarawak", "Check": null, "Latitude": 3.1332629, "Longitude": 115.38, "PROJECT TY": "Hydro", "CAPACITY (": "14", "SCOPE OF W": null, "HOUSEHOLD": "46", "START": 2012, "COMPLETED": null, "WORK PROGR": "Not operating, under maintenance", "Maintenanc": null }, "geometry": { "type": "Point", "coordinates": [ 115.38, 3.1332629 ] } },
{ "type": "Feature", "properties": { "PROJECT NA": "Long Semadoh Naseb, Lawas, Sarawak", "Check": null, "Latitude": 4.2267269, "Longitude": 115.59, "PROJECT TY": "Hydro", "CAPACITY (": "20", "SCOPE OF W": null, "HOUSEHOLD": "40", "START": 2013, "COMPLETED": null, "WORK PROGR": "Not operating, management issue", "Maintenanc": null }, "geometry": { "type": "Point", "coordinates": [ 115.59, 4.2267269 ] } },
{ "type": "Feature", "properties": { "PROJECT NA": "Kg. Tiku, Penampang, Sabah", "Check": null, "Latitude": 5.78, "Longitude": 116.17, "PROJECT TY": "Hydro", "CAPACITY (": "8,5", "SCOPE OF W": null, "HOUSEHOLD": "18", "START": 2013, "COMPLETED": null, "WORK PROGR": "100%", "Maintenanc": null }, "geometry": { "type": "Point", "coordinates": [ 116.17, 5.78 ] } },
{ "type": "Feature", "properties": { "PROJECT NA": "Kg. Assum, Kuching, Sarawak", "Check": null, "Latitude": 1.176402016, "Longitude": 110.2216485, "PROJECT TY": "Hydro", "CAPACITY (": "3", "SCOPE OF W": "Micro Hydro Power System", "HOUSEHOLD": null, "START": null, "COMPLETED": 2014, "WORK PROGR": "100%", "Maintenanc": null }, "geometry": { "type": "Point", "coordinates": [ 110.2216485, 1.176402016 ] } },
{ "type": "Feature", "properties": { "PROJECT NA": "Eco-Wellness Resort & Spa, Kg. Maang, Penampang, Sabah", "Check": null, "Latitude": 5.868593181, "Longitude": 116.09, "PROJECT TY": "Hydro", "CAPACITY (": "3", "SCOPE OF W": "Micro Hydro Power System", "HOUSEHOLD": null, "START": null, "COMPLETED": 2014, "WORK PROGR": "100%", "Maintenanc": null }, "geometry": { "type": "Point", "coordinates": [ 116.09, 5.868593181 ] } },
{ "type": "Feature", "properties": { "PROJECT NA": "Long Kerangan, Baram, Sarawak", "Check": null, "Latitude": 1.3619679, "Longitude": 111.55, "PROJECT TY": "Hydro", "CAPACITY (": "20", "SCOPE OF W": null, "HOUSEHOLD": "50", "START": 2014, "COMPLETED": null, "WORK PROGR": "Not operating", "Maintenanc": null }, "geometry": { "type": "Point", "coordinates": [ 111.55, 1.3619679 ] } },
{ "type": "Feature", "properties": { "PROJECT NA": "Kg. Pongobonon, Penampang, Sabah", "Check": null, "Latitude": 5.79, "Longitude": 116.21, "PROJECT TY": "Hydro", "CAPACITY (": "5", "SCOPE OF W": null, "HOUSEHOLD": "8", "START": 2014, "COMPLETED": null, "WORK PROGR": "100%", "Maintenanc": null }, "geometry": { "type": "Point", "coordinates": [ 116.21, 5.79 ] } },
{ "type": "Feature", "properties": { "PROJECT NA": "Kg. Saliku, Nabawan, Sabah", "Check": null, "Latitude": 4.4575948, "Longitude": 116.59, "PROJECT TY": "Hydro", "CAPACITY (": "6", "SCOPE OF W": null, "HOUSEHOLD": "42", "START": 2014, "COMPLETED": null, "WORK PROGR": "Not operating, watershed issue", "Maintenanc": null }, "geometry": { "type": "Point", "coordinates": [ 116.59, 4.4575948 ] } },
{ "type": "Feature", "properties": { "PROJECT NA": "Kg. Kalanggaan, Penampang, Sabah", "Check": null, "Latitude": 5.7904769, "Longitude": 116.26, "PROJECT TY": "Hydro", "CAPACITY (": "5", "SCOPE OF W": null, "HOUSEHOLD": "10", "START": 2015, "COMPLETED": null, "WORK PROGR": "100%", "Maintenanc": null }, "geometry": { "type": "Point", "coordinates": [ 116.26, 5.7904769 ] } },
{ "type": "Feature", "properties": { "PROJECT NA": "Pa’Ramapuh, Bario, Miri, Sarawak", "Check": null, "Latitude": 3.7442, "Longitude": 115.43, "PROJECT TY": "Hydro", "CAPACITY (": "40", "SCOPE OF W": null, "HOUSEHOLD": "80", "START": 2015, "COMPLETED": null, "WORK PROGR": "Not operating", "Maintenanc": null }, "geometry": { "type": "Point", "coordinates": [ 115.43, 3.7442 ] } },
{ "type": "Feature", "properties": { "PROJECT NA": "Buduk Bui, Lawas, Sarawak", "Check": null, "Latitude": 4.0195282, "Longitude": 115.62, "PROJECT TY": "Hydro", "CAPACITY (": "30", "SCOPE OF W": null, "HOUSEHOLD": "76", "START": 2016, "COMPLETED": null, "WORK PROGR": "100%", "Maintenanc": null }, "geometry": { "type": "Point", "coordinates": [ 115.62, 4.0195282 ] } },
{ "type": "Feature", "properties": { "PROJECT NA": "Kg. Kalanggaan, Penampang, Sabah", "Check": null, "Latitude": 5.79, "Longitude": 116.26, "PROJECT TY": "Hydro", "CAPACITY (": "40", "SCOPE OF W": null, "HOUSEHOLD": "93", "START": 2016, "COMPLETED": null, "WORK PROGR": "100%", "Maintenanc": null }, "geometry": { "type": "Point", "coordinates": [ 116.26, 5.79 ] } },
{ "type": "Feature", "properties": { "PROJECT NA": "Long Telingan, Lawas, Sarawak", "Check": null, "Latitude": 4.250402676, "Longitude": 115.5984787, "PROJECT TY": "Hydro", "CAPACITY (": "20", "SCOPE OF W": null, "HOUSEHOLD": "47", "START": 2016, "COMPLETED": null, "WORK PROGR": "100%", "Maintenanc": null }, "geometry": { "type": "Point", "coordinates": [ 115.5984787, 4.250402676 ] } },
{ "type": "Feature", "properties": { "PROJECT NA": "Long Urun, Belaga, Sarawak", "Check": null, "Latitude": 3.0186231, "Longitude": 114.2, "PROJECT TY": "Hydro", "CAPACITY (": "20", "SCOPE OF W": null, "HOUSEHOLD": "78", "START": 2016, "COMPLETED": null, "WORK PROGR": "To confirm", "Maintenanc": null }, "geometry": { "type": "Point", "coordinates": [ 114.2, 3.0186231 ] } },
{ "type": "Feature", "properties": { "PROJECT NA": "Kg. Longkogungan, Penampang, Sabah", "Check": null, "Latitude": 5.79, "Longitude": 116.29, "PROJECT TY": "Hydro", "CAPACITY (": "20", "SCOPE OF W": null, "HOUSEHOLD": "10", "START": 2016, "COMPLETED": null, "WORK PROGR": "100%", "Maintenanc": null }, "geometry": { "type": "Point", "coordinates": [ 116.29, 5.79 ] } },
{ "type": "Feature", "properties": { "PROJECT NA": "Kg. Lumampau, Sipitang, Sabah", "Check": null, "Latitude": 4.7982651, "Longitude": 115.7, "PROJECT TY": "Hydro", "CAPACITY (": "19", "SCOPE OF W": null, "HOUSEHOLD": "3", "START": 2016, "COMPLETED": null, "WORK PROGR": "Not operating", "Maintenanc": null }, "geometry": { "type": "Point", "coordinates": [ 115.7, 4.7982651 ] } },
{ "type": "Feature", "properties": { "PROJECT NA": "SAFE Project, Tawau, Sabah", "Check": null, "Latitude": 5.4201286, "Longitude": 116.8, "PROJECT TY": "Hydro", "CAPACITY (": "10", "SCOPE OF W": null, "HOUSEHOLD": null, "START": 2016, "COMPLETED": null, "WORK PROGR": "Not operating", "Maintenanc": null }, "geometry": { "type": "Point", "coordinates": [ 116.8, 5.4201286 ] } },
{ "type": "Feature", "properties": { "PROJECT NA": "Tanjung Tepalit, Baram, Sarawak", "Check": null, "Latitude": 3.2382959, "Longitude": 114.82, "PROJECT TY": "Hydro", "CAPACITY (": "10", "SCOPE OF W": null, "HOUSEHOLD": null, "START": 2016, "COMPLETED": null, "WORK PROGR": "100%", "Maintenanc": null }, "geometry": { "type": "Point", "coordinates": [ 114.82, 3.2382959 ] } },
{ "type": "Feature", "properties": { "PROJECT NA": "Long Semadoh Rayeh, Lawas, Sarawak", "Check": null, "Latitude": 4.247077572, "Longitude": 115.59, "PROJECT TY": "Hydro", "CAPACITY (": null, "SCOPE OF W": "Upgrade & Commissioning MHP system", "HOUSEHOLD": null, "START": null, "COMPLETED": 2017, "WORK PROGR": "100%", "Maintenanc": null }, "geometry": { "type": "Point", "coordinates": [ 115.59, 4.247077572 ] } },
{ "type": "Feature", "properties": { "PROJECT NA": "Long Liam, Baram, Sarawak", "Check": null, "Latitude": 3.3276245, "Longitude": 114.76, "PROJECT TY": "Hydro", "CAPACITY (": "10", "SCOPE OF W": null, "HOUSEHOLD": "38", "START": 2017, "COMPLETED": null, "WORK PROGR": "100%", "Maintenanc": null }, "geometry": { "type": "Point", "coordinates": [ 114.76, 3.3276245 ] } },
{ "type": "Feature", "properties": { "PROJECT NA": "Long Lidung, Lawas, Sarawak", "Check": null, "Latitude": 4.574936, "Longitude": 115.46, "PROJECT TY": "Hydro", "CAPACITY (": "3", "SCOPE OF W": null, "HOUSEHOLD": "16", "START": 2017, "COMPLETED": null, "WORK PROGR": "100%", "Maintenanc": null }, "geometry": { "type": "Point", "coordinates": [ 115.46, 4.574936 ] } },
{ "type": "Feature", "properties": { "PROJECT NA": "Kg. Sabibingkol, Nabawan, Sabah", "Check": null, "Latitude": 4.5033381, "Longitude": 116.41, "PROJECT TY": "Hybrid", "CAPACITY (": null, "SCOPE OF W": null, "HOUSEHOLD": null, "START": 2017, "COMPLETED": null, "WORK PROGR": "Partially operating", "Maintenanc": null }, "geometry": { "type": "Point", "coordinates": [ 116.41, 4.5033381 ] } },
{ "type": "Feature", "properties": { "PROJECT NA": "Kg. Buayan, Penampang, Sabah", "Check": null, "Latitude": 5.77, "Longitude": 116.19, "PROJECT TY": "Hydro", "CAPACITY (": "20", "SCOPE OF W": null, "HOUSEHOLD": "56", "START": 2018, "COMPLETED": null, "WORK PROGR": "100%", "Maintenanc": null }, "geometry": { "type": "Point", "coordinates": [ 116.19, 5.77 ] } },
{ "type": "Feature", "properties": { "PROJECT NA": "Long Tanid, Lawas, Sarawak", "Check": null, "Latitude": 4.2059409, "Longitude": 115.59, "PROJECT TY": "Hydro", "CAPACITY (": "25", "SCOPE OF W": null, "HOUSEHOLD": "60", "START": 2018, "COMPLETED": null, "WORK PROGR": "To confirm", "Maintenanc": null }, "geometry": { "type": "Point", "coordinates": [ 115.59, 4.2059409 ] } },
{ "type": "Feature", "properties": { "PROJECT NA": "Ba’Abang, Baram, Sarawak", "Check": null, "Latitude": 3.385758, "Longitude": 114.85, "PROJECT TY": "Hybrid", "CAPACITY (": "5", "SCOPE OF W": null, "HOUSEHOLD": "32", "START": 2019, "COMPLETED": null, "WORK PROGR": "Not operating, lightning strike/COVID", "Maintenanc": null }, "geometry": { "type": "Point", "coordinates": [ 114.85, 3.385758 ] } },
{ "type": "Feature", "properties": { "PROJECT NA": "Kg. Walou, Ranau, Sabah", "Check": null, "Latitude": 5.66, "Longitude": 116.72, "PROJECT TY": "Hybrid", "CAPACITY (": "20", "SCOPE OF W": null, "HOUSEHOLD": "18", "START": 2019, "COMPLETED": null, "WORK PROGR": "100%", "Maintenanc": null }, "geometry": { "type": "Point", "coordinates": [ 116.72, 5.66 ] } },
{ "type": "Feature", "properties": { "PROJECT NA": "Kg. Dagat, Kinabatangan, Sabah", "Check": null, "Latitude": 5.37, "Longitude": 118.76, "PROJECT TY": "Solar", "CAPACITY (": "35,5", "SCOPE OF W": null, "HOUSEHOLD": "20", "START": 2024, "COMPLETED": null, "WORK PROGR": "100%", "Maintenanc": null }, "geometry": { "type": "Point", "coordinates": [ 118.76, 5.37 ] } },
{ "type": "Feature", "properties": { "PROJECT NA": "Puneng Trusan, Lawas, Sarawak", "Check": null, "Latitude": 4.265098137, "Longitude": 115.6144195, "PROJECT TY": "Hydro", "CAPACITY (": "5", "SCOPE OF W": null, "HOUSEHOLD": "38", "START": 2024, "COMPLETED": null, "WORK PROGR": "100%", "Maintenanc": null }, "geometry": { "type": "Point", "coordinates": [ 115.6144195, 4.265098137 ] } },
{ "type": "Feature", "properties": { "PROJECT NA": "Kg. Timpayasah, Penampang, Sabah", "Check": null, "Latitude": 5.7949806, "Longitude": 116.16, "PROJECT TY": "Solar", "CAPACITY (": "5", "SCOPE OF W": null, "HOUSEHOLD": "10", "START": 2024, "COMPLETED": null, "WORK PROGR": "100%", "Maintenanc": null }, "geometry": { "type": "Point", "coordinates": [ 116.16, 5.7949806 ] } },
{ "type": "Feature", "properties": { "PROJECT NA": "Kg. Pitas Laut, Kinabatangan, Sabah", "Check": null, "Latitude": 5.8, "Longitude": 118.38, "PROJECT TY": "Solar", "CAPACITY (": "35,3", "SCOPE OF W": null, "HOUSEHOLD": "17", "START": 2026, "COMPLETED": null, "WORK PROGR": "100%", "Maintenanc": null }, "geometry": { "type": "Point", "coordinates": [ 118.38, 5.8 ] } },
{ "type": "Feature", "properties": { "PROJECT NA": "Kg. Pokolon Paus, Ranau, Sabah", "Check": null, "Latitude": 5.69, "Longitude": 116.79, "PROJECT TY": "Hybrid", "CAPACITY (": "35", "SCOPE OF W": null, "HOUSEHOLD": "45", "START": 2026, "COMPLETED": null, "WORK PROGR": "100%", "Maintenanc": null }, "geometry": { "type": "Point", "coordinates": [ 116.79, 5.69 ] } },
{ "type": "Feature", "properties": { "PROJECT NA": "Kg. Kodop Baru, Ranau, Sabah", "Check": null, "Latitude": 5.7, "Longitude": 116.74, "PROJECT TY": "Solar", "CAPACITY (": "TBD", "SCOPE OF W": null, "HOUSEHOLD": "108", "START": 2026, "COMPLETED": null, "WORK PROGR": "Underway, FPIC completed", "Maintenanc": null }, "geometry": { "type": "Point", "coordinates": [ 116.74, 5.7 ] } },
{ "type": "Feature", "properties": { "PROJECT NA": "Kg. Paus, Ranau, Sabah", "Check": null, "Latitude": 5.69, "Longitude": 116.79, "PROJECT TY": "Solar", "CAPACITY (": "TBD", "SCOPE OF W": null, "HOUSEHOLD": "30", "START": 2026, "COMPLETED": null, "WORK PROGR": "Underway, FPIC completed", "Maintenanc": null }, "geometry": { "type": "Point", "coordinates": [ 116.79, 5.69 ] } },
{ "type": "Feature", "properties": { "PROJECT NA": "Kg. Deromomol, Ranau, Sabah", "Check": null, "Latitude": 5.68, "Longitude": 116.76, "PROJECT TY": "Hydro", "CAPACITY (": "TBD", "SCOPE OF W": null, "HOUSEHOLD": "54", "START": 2026, "COMPLETED": null, "WORK PROGR": "Underway, FPIC completed", "Maintenanc": null }, "geometry": { "type": "Point", "coordinates": [ 116.76, 5.68 ] } },
{ "type": "Feature", "properties": { "PROJECT NA": "Kg. Penubukan, Paitan, Sabah", "Check": null, "Latitude": 6.51, "Longitude": 117.39, "PROJECT TY": "Solar", "CAPACITY (": "TBD", "SCOPE OF W": null, "HOUSEHOLD": "40", "START": 2026, "COMPLETED": null, "WORK PROGR": "Underway, FPIC completed", "Maintenanc": null }, "geometry": { "type": "Point", "coordinates": [ 117.39, 6.51 ] } },
{ "type": "Feature", "properties": { "PROJECT NA": "Kg. Tanjung Rambai, Hulu Langat, Selangor", "Check": null, "Latitude": 4.170969459, "Longitude": 102.04, "PROJECT TY": "Hydro", "CAPACITY (": "20", "SCOPE OF W": "MHP System-  Watershed Management", "HOUSEHOLD": null, "START": null, "COMPLETED": 2011, "WORK PROGR": "100%", "Maintenanc": null }, "geometry": { "type": "Point", "coordinates": [ 102.04, 4.170969459 ] } },
{ "type": "Feature", "properties": { "PROJECT NA": "Kg. Sungai Rellang, Selangor", "Check": null, "Latitude": 2.9492876, "Longitude": 101.34, "PROJECT TY": "Hydro", "CAPACITY (": "5", "SCOPE OF W": "MHP System-  Watershed Management", "HOUSEHOLD": "9", "START": 2012, "COMPLETED": 2013, "WORK PROGR": "100%", "Maintenanc": null }, "geometry": { "type": "Point", "coordinates": [ 101.34, 2.9492876 ] } },
{ "type": "Feature", "properties": { "PROJECT NA": "Telimau, Pahang", "Check": null, "Latitude": 4.366307683, "Longitude": 101.4910403, "PROJECT TY": "Hydro", "CAPACITY (": null, "SCOPE OF W": "MHP System", "HOUSEHOLD": null, "START": null, "COMPLETED": null, "WORK PROGR": "on going", "Maintenanc": null }, "geometry": { "type": "Point", "coordinates": [ 101.4910403, 4.366307683 ] } },
{ "type": "Feature", "properties": { "PROJECT NA": "Cerewes, Pahang", "Check": null, "Latitude": 4.260011231, "Longitude": 101.5474852, "PROJECT TY": "Hydro", "CAPACITY (": null, "SCOPE OF W": "MHP System", "HOUSEHOLD": null, "START": null, "COMPLETED": null, "WORK PROGR": "on going", "Maintenanc": null }, "geometry": { "type": "Point", "coordinates": [ 101.5474852, 4.260011231 ] } },
{ "type": "Feature", "properties": { "PROJECT NA": "Chini, Pahang", "Check": null, "Latitude": 3.377850653, "Longitude": 102.94, "PROJECT TY": "Solar", "CAPACITY (": null, "SCOPE OF W": "Solar Pump Project", "HOUSEHOLD": null, "START": null, "COMPLETED": null, "WORK PROGR": null, "Maintenanc": null }, "geometry": { "type": "Point", "coordinates": [ 102.94, 3.377850653 ] } },
{ "type": "Feature", "properties": { "PROJECT NA": "Kg. Tadungus, Kalimantan Utara", "Check": null, "Latitude": 4.049305219, "Longitude": 116.55, "PROJECT TY": "Solar", "CAPACITY (": "5,5", "SCOPE OF W": "MHP Tadungus, Kalimantan utara, Indonesia", "HOUSEHOLD": "33", "START": 2022, "COMPLETED": 2023, "WORK PROGR": "on going", "Maintenanc": null }, "geometry": { "type": "Point", "coordinates": [ 116.55, 4.049305219 ] } },
{ "type": "Feature", "properties": { "PROJECT NA": "Location Unknown", "Check": null, "Latitude": null, "Longitude": null, "PROJECT TY": null, "CAPACITY (": null, "SCOPE OF W": null, "HOUSEHOLD": null, "START": null, "COMPLETED": null, "WORK PROGR": null, "Maintenanc": null }, "geometry": null }
]
}
